H1 CPF 01  gfz 2022 04 27 00  6171 tandemx   
H2 1003001  6202 36605    2022 04 27 00 59 42 2022 05 02 00 00 42   120 1 1  0 0 0
H9
10 0 59699   9342.000000  0    2454273.823   4114686.484   4939926.975
10 0 59699   9462.000000  0    2947415.281   4518539.632   4274404.616
10 0 59699   9582.000000  0    3395348.424   4835181.778   3533641.582
10 0 59699   9702.000000  0    3788661.319   5059930.703   2730662.341
10 0 59699   9822.000000  0    4118836.767   5189877.681   1879599.493
10 0 59699   9942.000000  0    4378435.775   5223923.256    995439.914
10 0 59699  10062.000000  0    4561264.078   5162781.317     93756.055
10 0 59699  10182.000000  0    4662513.903   5008943.631   -809578.951
10 0 59699  10302.000000  0    4678877.880   4766606.605  -1698678.568
10 0 59699  10422.000000  0    4608633.396   4441565.778  -2557929.562
10 0 59699  10542.000000  0    4451694.625   4041079.344  -3372272.313
10 0 59699  10662.000000  0    4209630.528   3573704.112  -4127468.449
10 0 59699  10782.000000  0    3885649.296   3049108.608  -4810348.734
10 0 59699  10902.000000  0    3484551.786   2477868.848  -5409038.365
10 0 59699  11022.000000  0    3012654.131   1871251.787  -5913156.334
10 0 59699  11142.000000  0    2477681.829   1240990.891  -6313985.198
10 0 59699  11262.000000  0    1888638.317    599059.414  -6604609.750
10 0 59699  11382.000000  0    1255652.257    -42553.851  -6780024.466
10 0 59699  11502.000000  0     589804.595   -672064.092  -6837212.377
10 0 59699  11622.000000  0     -97063.621  -1278102.488  -6775190.181
10 0 59699  11742.000000  0    -792556.204  -1849915.389  -6595022.140
10 0 59699  11862.000000  0   -1483939.808  -2377550.306  -6299805.080
10 0 59699  11982.000000  0   -2158371.853  -2852026.930  -5894620.825
10 0 59699  12102.000000  0   -2803133.788  -3265488.894  -5386457.776
10 0 59699  12222.000000  0   -3405868.653  -3611336.188  -4784102.938
10 0 59699  12342.000000  0   -3954819.148  -3884335.139  -4098001.092
10 0 59699  12462.000000  0   -4439059.557  -4080702.374  -3340083.641
10 0 59699  12582.000000  0   -4848718.146  -4198161.871  -2523569.187
10 0 59699  12702.000000  0   -5175184.411  -4235972.771  -1662737.088
10 0 59699  12822.000000  0   -5411295.677  -4194926.421   -772678.340
10 0 59699  12942.000000  0   -5551498.308  -4077312.659    130971.838
10 0 59699  13062.000000  0   -5591979.219  -3886855.759   1032314.854
10 0 59699  13182.000000  0   -5530762.760  -3628620.669   1915478.008
10 0 59699  13302.000000  0   -5367769.598  -3308890.723   2764903.691
10 0 59699  13422.000000  0   -5104837.131  -2935021.624   3565631.375
10 0 59699  13542.000000  0   -4745701.264  -2515275.546   4303567.861
10 0 59699  13662.000000  0   -4295939.009  -2058638.342   4965739.350
10 0 59699  13782.000000  0   -3762875.096  -1574626.371   5540518.601
10 0 59699  13902.000000  0   -3155456.629  -1073088.021   6017826.571
10 0 59699  14022.000000  0   -2484096.323   -564002.233   6389306.393
10 0 59699  14142.000000  0   -1760486.853    -57278.425   6648464.064
10 0 59699  14262.000000  0    -997392.487    437435.571   6790774.318
10 0 59699  14382.000000  0    -208422.745    910935.430   6813754.560
10 0 59699  14502.000000  0     592210.145   1354630.839   6717005.439
10 0 59699  14622.000000  0    1389946.547   1760701.362   6502217.534
10 0 59699  14742.000000  0    2170143.500   2122234.492   6173142.977
10 0 59699  14862.000000  0    2918342.849   2433343.584   5735534.283
10 0 59699  14982.000000  0    3620541.208   2689265.273   5197050.304
10 0 59699  15102.000000  0    4263455.638   2886434.069   4567127.530
10 0 59699  15222.000000  0    4834778.862   3022532.881   3856820.371
10 0 59699  15342.000000  0    5323423.760   3096518.667   3078612.172
10 0 59699  15462.000000  0    5719747.035   3108619.889   2246193.858
10 0 59699  15582.000000  0    6015745.465   3060308.539   1374221.729
10 0 59699  15702.000000  0    6205224.009   2954246.671    478053.915
10 0 59699  15822.000000  0    6283927.929   2794207.009   -426528.713
10 0 59699  15942.000000  0    6249635.245   2584969.488  -1323609.746
10 0 59699  16062.000000  0    6102207.871   2332198.022  -2197424.363
10 0 59699  16182.000000  0    5843602.974   2042302.221  -3032643.299
10 0 59699  16302.000000  0    5477841.258   1722283.982  -3814646.891
10 0 59699  16422.000000  0    5010934.924   1379574.609  -4529782.690
10 0 59699  16542.000000  0    4450776.120   1021866.663  -5165601.060
10 0 59699  16662.000000  0    3806992.193    656946.282  -5711064.289
10 0 59699  16782.000000  0    3090771.347    292528.334  -6156729.002
10 0 59699  16902.000000  0    2314660.978    -63901.824  -6494898.794
10 0 59699  17022.000000  0    1492345.084   -405237.293  -6719745.165
10 0 59699  17142.000000  0     638404.522   -724886.871  -6827398.795
10 0 59699  17262.000000  0    -231939.126  -1016898.354  -6816008.831
10 0 59699  17382.000000  0   -1103088.444  -1276065.638  -6685769.903
10 0 59699  17502.000000  0   -1959342.785  -1498019.166  -6438920.037
10 0 59699  17622.000000  0   -2785175.249  -1679298.392  -6079705.889
10 0 59699  17742.000000  0   -3565507.724  -1817404.869  -5614317.090
10 0 59699  17862.000000  0   -4285984.141  -1910836.596  -5050791.934
10 0 59699  17982.000000  0   -4933237.211  -1959101.737  -4398889.917
10 0 59699  18102.000000  0   -5495141.446  -1962711.296  -3669933.705
10 0 59699  18222.000000  0   -5961049.255  -1923151.081  -2876621.749
10 0 59699  18342.000000  0   -6322003.462  -1842832.575  -2032812.521
10 0 59699  18462.000000  0   -6570920.955  -1725023.501  -1153284.662
10 0 59699  18582.000000  0   -6702742.523  -1573759.675   -253476.335
10 0 59699  18702.000000  0   -6714544.487  -1393739.636    650790.965
10 0 59699  18822.000000  0   -6605608.016  -1190204.514   1543598.614
10 0 59699  18942.000000  0   -6377443.691   -968806.644   2409220.222
10 0 59699  19062.000000  0   -6033771.037   -735470.280   3232407.553
10 0 59699  19182.000000  0   -5580453.655   -496247.346   3998667.092
10 0 59699  19302.000000  0   -5025390.099   -257172.561   4694520.765
10 0 59699  19422.000000  0   -4378365.766    -24122.126   5307743.605
10 0 59699  19542.000000  0   -3650871.546    197321.890   5827576.858
10 0 59699  19662.000000  0   -2855890.534    401997.602   6244913.799
10 0 59699  19782.000000  0   -2007658.385    585276.752   6552453.586
10 0 59699  19902.000000  0   -1121403.054    743163.778   6744823.560
10 0 59699  20022.000000  0    -213068.234    872379.457   6818666.724
10 0 59699  20142.000000  0     700973.439    970426.694   6772695.874
10 0 59699  20262.000000  0    1604214.360   1035638.200   6607714.584
10 0 59699  20382.000000  0    2480309.078   1067205.216   6326604.093
10 0 59699  20502.000000  0    3313369.779   1065186.320   5934276.737
10 0 59699  20622.000000  0    4088256.911   1030496.527   5437595.105
10 0 59699  20742.000000  0    4790857.253    964876.960   4845257.282
10 0 59699  20862.000000  0    5408347.420    870845.191   4167652.197
10 0 59699  20982.000000  0    5929438.172    751627.805   3416681.636
10 0 59699  21102.000000  0    6344590.805    611076.389   2605551.538
10 0 59699  21222.000000  0    6646200.281    453567.728   1748538.813
10 0 59699  21342.000000  0    6828744.636    283891.649    860736.466
10 0 59699  21462.000000  0    6888891.725    107128.866    -42219.280
10 0 59699  21582.000000  0    6825563.520    -71478.447   -944432.992
10 0 59699  21702.000000  0    6639953.696   -246659.701  -1830039.124
10 0 59699  21822.000000  0    6335499.374   -413248.938  -2683489.072
10 0 59699  21942.000000  0    5917808.352   -566315.042  -3489829.498
10 0 59699  22062.000000  0    5394544.395   -701285.291  -4234967.062
10 0 59699  22182.000000  0    4775273.375   -814058.852  -4905913.517
10 0 59699  22302.000000  0    4071276.397   -901107.691  -5491006.487
10 0 59699  22422.000000  0    3295334.505   -959564.111  -5980104.338
10 0 59699  22542.000000  0    2461488.862   -987292.708  -6364751.725
10 0 59699  22662.000000  0    1584782.839   -982943.929  -6638314.091
10 0 59699  22782.000000  0     680991.147   -945990.511  -6796081.052
10 0 59699  22902.000000  0    -233660.528   -876745.966  -6835339.330
10 0 59699  23022.000000  0   -1142780.778   -776363.909  -6755413.621
10 0 59699  23142.000000  0   -2030099.213   -646819.312  -6557677.469
10 0 59699  23262.000000  0   -2879751.354   -490871.035  -6245531.247
10 0 59699  23382.000000  0   -3676555.391   -312007.066  -5824349.580
10 0 59699  23502.000000  0   -4406281.237   -114372.542  -5301400.000
10 0 59699  23622.000000  0   -5055906.454     97318.332  -4685728.161
10 0 59699  23742.000000  0   -5613853.559    317884.468  -3988013.626
10 0 59699  23862.000000  0   -6070206.507    541793.992  -3220395.258
10 0 59699  23982.000000  0   -6416899.032    763290.978  -2396267.345
10 0 59699  24102.000000  0   -6647870.080    976530.673  -1530049.452
10 0 59699  24222.000000  0   -6759183.329   1175719.490   -636934.503
10 0 59699  24342.000000  0   -6749105.470   1355256.479    267383.639
10 0 59699  24462.000000  0   -6618138.262   1509872.277   1166992.653
10 0 59699  24582.000000  0   -6369008.048   1634763.100   2046049.450
10 0 59699  24702.000000  0   -6006610.185   1725715.559   2889068.591
10 0 59699  24822.000000  0   -5537909.109   1779218.501   3681203.971
10 0 59699  24942.000000  0   -4971796.565   1792559.038   4408516.415
10 0 59699  25062.000000  0   -4318913.520   1763900.953   5058221.344
10 0 59699  25182.000000  0   -3591441.096   1692343.768   5618912.787
10 0 59699  25302.000000  0   -2802865.511   1577961.316   6080761.426
10 0 59699  25422.000000  0   -1967720.147   1421819.393   6435683.562
10 0 59699  25542.000000  0   -1101310.932   1225971.010   6677476.185
10 0 59699  25662.000000  0    -219432.796    993430.420   6801918.058
10 0 59699  25782.000000  0     661918.102    728126.584   6806838.164
99
